{
  "type": "FeatureCollection",
  "features": [
    {
      "type": "Feature",
      "properties": {
        "norad_id": 30816,
        "name": "FENGYUN 1C DEB",
        "group": "fengyun-1c-debris",
        "lat": -61.40721288018664,
        "lon": -142.8633072489503,
        "alt_km": 877.3102211241667,
        "timestamp": "2025-12-09T09:46:47.924708+00:00",
        "meta_object_name": "FENGYUN 1C DEB",
        "meta_object_id": "1999-025AVA",
        "meta_epoch": "2025-12-08T17:58:06.345120",
        "meta_mean_motion": 14.17970648,
        "meta_eccentricity": 0.00527153,
        "meta_inclination": 98.9146,
        "meta_ra_of_asc_node": 53.2116,
        "meta_arg_of_pericenter": 66.8864,
        "meta_mean_anomaly": 54.577,
        "meta_ephemeris_type": 0,
        "meta_classification_type": "U",
        "meta_norad_cat_id": 30816,
        "meta_element_set_no": 999,
        "meta_rev_at_epoch": 96337,
        "meta_bstar": 0.0024994702,
        "meta_mean_motion_dot": 5.145e-05,
        "meta_mean_motion_ddot": 0,
        "tle_line1": "1 30816U 99025AVA 25342.74868455  .00005145  00000+0  24995-2 0  9991",
        "tle_line2": "2 30816  98.9146  53.2116 0052715  66.8864  54.5770 14.17970648963376"
      },
      "geometry": {
        "type": "Point",
        "coordinates": [
          -142.8633072489503,
          -61.40721288018664
        ]
      }
    },
    {
      "type": "Feature",
      "properties": {
        "norad_id": 30817,
        "name": "FENGYUN 1C DEB",
        "group": "fengyun-1c-debris",
        "lat": 6.934383168133856,
        "lon": 154.82510859923582,
        "alt_km": 886.793437993103,
        "timestamp": "2025-12-09T09:46:47.924719+00:00",
        "meta_object_name": "FENGYUN 1C DEB",
        "meta_object_id": "1999-025AVB",
        "meta_epoch": "2025-12-08T22:39:54.215136",
        "meta_mean_motion": 14.00715997,
        "meta_eccentricity": 0.00573427,
        "meta_inclination": 98.7857,
        "meta_ra_of_asc_node": 333.3021,
        "meta_arg_of_pericenter": 255.5684,
        "meta_mean_anomaly": 103.9114,
        "meta_ephemeris_type": 0,
        "meta_classification_type": "U",
        "meta_norad_cat_id": 30817,
        "meta_element_set_no": 999,
        "meta_rev_at_epoch": 95856,
        "meta_bstar": 0.00038318712,
        "meta_mean_motion_dot": 5.37e-06,
        "meta_mean_motion_ddot": 0,
        "tle_line1": "1 30817U 99025AVB 25342.94437749  .00000537  00000+0  38319-3 0  9998",
        "tle_line2": "2 30817  98.7857 333.3021 0057342 255.5684 103.9114 14.00715997958561"
      },
      "geometry": {
        "type": "Point",
        "coordinates": [
          154.82510859923582,
          6.934383168133856
        ]
      }
    },
    {
      "type": "Feature",
      "properties": {
        "norad_id": 30820,
        "name": "FENGYUN 1C DEB",
        "group": "fengyun-1c-debris",
        "lat": 29.440055262410052,
        "lon": -95.291395702786,
        "alt_km": 793.3776715708136,
        "timestamp": "2025-12-09T09:46:47.924729+00:00",
        "meta_object_name": "FENGYUN 1C DEB",
        "meta_object_id": "1999-025AVE",
        "meta_epoch": "2025-12-08T12:53:49.079040",
        "meta_mean_motion": 14.21345836,
        "meta_eccentricity": 0.00520408,
        "meta_inclination": 98.676,
        "meta_ra_of_asc_node": 78.91,
        "meta_arg_of_pericenter": 199.103,
        "meta_mean_anomaly": 181.6146,
        "meta_ephemeris_type": 0,
        "meta_classification_type": "U",
        "meta_norad_cat_id": 30820,
        "meta_element_set_no": 999,
        "meta_rev_at_epoch": 96364,
        "meta_bstar": 0.0030032293,
        "meta_mean_motion_dot": 6.605e-05,
        "meta_mean_motion_ddot": 0,
        "tle_line1": "1 30820U 99025AVE 25342.53737360  .00006605  00000+0  30032-2 0  9994",
        "tle_line2": "2 30820  98.6760  78.9100 0052040 199.1030 181.6146 14.21345836963642"
      },
      "geometry": {
        "type": "Point",
        "coordinates": [
          -95.291395702786,
          29.440055262410052
        ]
      }
    },
    {
      "type": "Feature",
      "properties": {
        "norad_id": 30821,
        "name": "FENGYUN 1C DEB",
        "group": "fengyun-1c-debris",
        "lat": -41.35157963057597,
        "lon": -62.397616005964345,
        "alt_km": 672.5432726971085,
        "timestamp": "2025-12-09T09:46:47.924740+00:00",
        "meta_object_name": "FENGYUN 1C DEB",
        "meta_object_id": "1999-025AVF",
        "meta_epoch": "2025-12-01T08:43:29.259840",
        "meta_mean_motion": 14.49523426,
        "meta_eccentricity": 0.00862987,
        "meta_inclination": 99.1021,
        "meta_ra_of_asc_node": 117.0363,
        "meta_arg_of_pericenter": 240.0336,
        "meta_mean_anomaly": 149.0962,
        "meta_ephemeris_type": 0,
        "meta_classification_type": "U",
        "meta_norad_cat_id": 30821,
        "meta_element_set_no": 999,
        "meta_rev_at_epoch": 98624,
        "meta_bstar": 0.0010654422,
        "meta_mean_motion_dot": 4.23e-05,
        "meta_mean_motion_ddot": 0,
        "tle_line1": "1 30821U 99025AVF 25335.36353310  .00004230  00000+0  10654-2 0  9997",
        "tle_line2": "2 30821  99.1021 117.0363 0086298 240.0336 149.0962 14.49523426986240"
      },
      "geometry": {
        "type": "Point",
        "coordinates": [
          -62.397616005964345,
          -41.35157963057597
        ]
      }
    },
    {
      "type": "Feature",
      "properties": {
        "norad_id": 30822,
        "name": "FENGYUN 1C DEB",
        "group": "fengyun-1c-debris",
        "lat": -54.42980194198945,
        "lon": 179.14513836787557,
        "alt_km": 834.7712544549413,
        "timestamp": "2025-12-09T09:46:47.924751+00:00",
        "meta_object_name": "FENGYUN 1C DEB",
        "meta_object_id": "1999-025AVG",
        "meta_epoch": "2025-12-08T08:53:39.820992",
        "meta_mean_motion": 14.11333614,
        "meta_eccentricity": 0.00731354,
        "meta_inclination": 98.7356,
        "meta_ra_of_asc_node": 10.5516,
        "meta_arg_of_pericenter": 297.913,
        "meta_mean_anomaly": 72.7772,
        "meta_ephemeris_type": 0,
        "meta_classification_type": "U",
        "meta_norad_cat_id": 30822,
        "meta_element_set_no": 999,
        "meta_rev_at_epoch": 96640,
        "meta_bstar": 0.00062061691,
        "meta_mean_motion_dot": 1.107e-05,
        "meta_mean_motion_ddot": 0,
        "tle_line1": "1 30822U 99025AVG 25342.37059978  .00001107  00000+0  62062-3 0  9991",
        "tle_line2": "2 30822  98.7356  10.5516 0073135 297.9130  72.7772 14.11333614966407"
      },
      "geometry": {
        "type": "Point",
        "coordinates": [
          179.14513836787557,
          -54.42980194198945
        ]
      }
    },
    {
      "type": "Feature",
      "properties": {
        "norad_id": 30823,
        "name": "FENGYUN 1C DEB",
        "group": "fengyun-1c-debris",
        "lat": 73.89465006744467,
        "lon": 92.25667138359495,
        "alt_km": 784.858989984772,
        "timestamp": "2025-12-09T09:46:47.924761+00:00",
        "meta_object_name": "FENGYUN 1C DEB",
        "meta_object_id": "1999-025AVH",
        "meta_epoch": "2025-12-08T22:02:43.990944",
        "meta_mean_motion": 14.02547406,
        "meta_eccentricity": 0.01340479,
        "meta_inclination": 98.762,
        "meta_ra_of_asc_node": 124.0719,
        "meta_arg_of_pericenter": 95.2418,
        "meta_mean_anomaly": 34.3276,
        "meta_ephemeris_type": 0,
        "meta_classification_type": "U",
        "meta_norad_cat_id": 30823,
        "meta_element_set_no": 999,
        "meta_rev_at_epoch": 95980,
        "meta_bstar": 0.00070553727,
        "meta_mean_motion_dot": 1.135e-05,
        "meta_mean_motion_ddot": 0,
        "tle_line1": "1 30823U 99025AVH 25342.91856471  .00001135  00000+0  70554-3 0  9991",
        "tle_line2": "2 30823  98.7620 124.0719 0134047  95.2418  34.3276 14.02547406959801"
      },
      "geometry": {
        "type": "Point",
        "coordinates": [
          92.25667138359495,
          73.89465006744467
        ]
      }
    },
    {
      "type": "Feature",
      "properties": {
        "norad_id": 30826,
        "name": "FENGYUN 1C DEB",
        "group": "fengyun-1c-debris",
        "lat": -34.716517431889784,
        "lon": -175.7322042093603,
        "alt_km": 552.770116193371,
        "timestamp": "2025-12-09T09:46:47.924772+00:00",
        "meta_object_name": "FENGYUN 1C DEB",
        "meta_object_id": "1999-025AVL",
        "meta_epoch": "2025-12-08T19:25:32.621376",
        "meta_mean_motion": 14.8217709,
        "meta_eccentricity": 0.01457046,
        "meta_inclination": 98.8668,
        "meta_ra_of_asc_node": 177.3962,
        "meta_arg_of_pericenter": 9.2871,
        "meta_mean_anomaly": 7.2935,
        "meta_ephemeris_type": 0,
        "meta_classification_type": "U",
        "meta_norad_cat_id": 30826,
        "meta_element_set_no": 999,
        "meta_rev_at_epoch": 228,
        "meta_bstar": 0.00075815555,
        "meta_mean_motion_dot": 7.201e-05,
        "meta_mean_motion_ddot": 0,
        "tle_line1": "1 30826U 99025AVL 25342.80940534  .00007201  00000+0  75816-3 0  9992",
        "tle_line2": "2 30826  98.8668 177.3962 0145704   9.2871   7.2935 14.82177090  2286"
      },
      "geometry": {
        "type": "Point",
        "coordinates": [
          -175.7322042093603,
          -34.716517431889784
        ]
      }
    }
  ]
}